CZ-2D R/B               
1 28738U 05024B   26065.30962954  .00047943  00000+0  59687-3 0  9990
2 28738  97.3593  80.3323 0006375  55.6570 304.5289 15.59779484139254
ALOS (DAICHI)           
1 28931U 06002A   26065.30331147  .00002085  00000+0  35762-3 0  9992
2 28931  98.1215  21.2758 0001051  54.5297 305.6007 14.69797497 72985
H-2A R/B                
1 28932U 06002B   26064.97982284  .00010336  00000+0  51903-3 0  9992
2 28932  98.2404 211.6848 0051912 253.7613 105.7903 15.16321114 93875
RESURS-DK 1             
1 29228U 06021A   26065.22924124  .00003686  00000+0  21604-3 0  9995
2 29228  69.9310 245.9748 0002281 165.2061 194.9173 15.12714009 87005
CZ-4B R/B               
1 29507U 06046C   26065.11298662  .00005101  00000+0  25946-3 0  9998
2 29507  97.5597 110.0311 0031630 280.3204  79.4464 15.16859580 59507
CZ-2C R/B               
1 31114U 07010B   26065.27383214  .00000183  00000+0  10323-3 0  9990
2 31114  98.3978 178.7239 0057973 304.7383  54.8343 14.20244763979232
COSMO-SKYMED 1          
1 31598U 07023A   26065.25445578  .00003790  00000+0  33880-3 0  9990
2 31598  97.8863 256.2591 0000920  98.8639 261.2686 14.96500257 14390
COSMOS 2428             
1 31792U 07029A   26065.13655858  .00000063  00000+0  59329-4 0  9990
2 31792  70.9426 210.8006 0008946 280.6888  79.3226 14.12945189963591
SL-16 R/B               
1 31793U 07029B   26064.75543353 -.00000095  00000+0 -24594-4 0  9997
2 31793  70.9757 180.6541 0002372 277.2484 192.7201 14.14833448964813
KORONAS-FOTON           
1 33504U 09003A   26065.06844838  .00012362  00000+0  27699-3 0  9996
2 33504  82.4277 279.6435 0010985 161.8849 198.2792 15.43221790945182
CZ-2C R/B               
1 37731U 11030B   26065.32005169  .00002582  00000+0  33073-3 0  9996
2 37731  97.8546  22.6507 0052755   3.0391 155.3282 14.81206813789592
H-2A R/B                
1 38341U 12025E   26065.24858300  .00005342  00000+0  48399-3 0  9997
2 38341  98.4729  32.0190 0043592 325.8720  33.9697 14.95130706747703
SHIJIAN-16 (SJ-16)      
1 39358U 13057A   26065.34410905  .00005723  00000+0  56099-3 0  9997
2 39358  74.9732 191.4202 0015603 120.9704 239.3020 14.92330202671008
SL-4 R/B                
1 39679U 14021B   26065.18766585  .00017733  00000+0  39081-3 0  9991
2 39679  51.6091 354.3614 0097810  90.1357 271.0835 15.39044825655737
ALOS-2                  
1 39766U 14029A   26065.26960236  .00002117  00000+0  29011-3 0  9996
2 39766  97.9198 163.9163 0001407  97.6062 262.5310 14.79486543636361
YAOGAN-29               
1 41038U 15069A   26065.28592378  .00000639  00000+0  85382-4 0  9997
2 41038  98.0142  93.7059 0002099  41.2303 318.9069 14.82990467555379
